start=new Date('2023-01-28T00:00:00.000Z').valueOf();
sats=[{"DECAY_DATE":null,"FILE":"3763218","SITE":"AFWTR","TLE_LINE2":"2 55275  70.0002  45.7701 0010896 194.9865 216.5950 15.88617736  1309","RA_OF_ASC_NODE":"45.7701","APOAPSIS":"313.443","REV_AT_EPOCH":"130","LAUNCH_DATE":"2023-01-19","MEAN_MOTION":"15.88617736","INCLINATION":"70.0002","COUNTRY_CODE":"US","BSTAR":"-0.00326570000000","REF_FRAME":"TEME","EPHEMERIS_TYPE":"0","PERIAPSIS":"298.876","OBJECT_NAME":"STARLINK-5260","SEMIMAJOR_AXIS":"6684.294","CLASSIFICATION_TYPE":"U","RCS_SIZE":null,"MEAN_MOTION_DOT":"-0.00918178","GP_ID":"223841421","ECCENTRICITY":"0.00108960","ARG_OF_PERICENTER":"194.9865","MEAN_MOTION_DDOT":"0.0002495800000","EPOCH":"2023-01-27T22:00:00.999936","CENTER_NAME":"EARTH","TLE_LINE1":"1 55275U 23010G   23027.91667824 -.00918178  24958-3 -32657-2 0  9999","ELEMENT_SET_NO":"999","PERIOD":"90.645","OBJECT_ID":"2023-010G","TIME_SYSTEM":"UTC","MEAN_ELEMENT_THEORY":"SGP4","MEAN_ANOMALY":"216.5950","OBJECT_TYPE":"PAYLOAD","NORAD_CAT_ID":"55275"},{"GP_ID":"223841173","MEAN_MOTION_DOT":"-0.00918090","RCS_SIZE":null,"CLASSIFICATION_TYPE":"U","NORAD_CAT_ID":"55276","OBJECT_TYPE":"PAYLOAD","MEAN_ANOMALY":"216.6954","MEAN_ELEMENT_THEORY":"SGP4","TIME_SYSTEM":"UTC","OBJECT_ID":"2023-010H","PERIOD":"90.643","ELEMENT_SET_NO":"999","TLE_LINE1":"1 55276U 23010H   23027.91667824 -.00918090  24960-3 -32610-2 0  9995","CENTER_NAME":"EARTH","EPOCH":"2023-01-27T22:00:00.999936","MEAN_MOTION_DDOT":"0.0002496000000","ARG_OF_PERICENTER":"195.6403","ECCENTRICITY":"0.00108690","MEAN_MOTION":"15.88645233","INCLINATION":"70.0002","LAUNCH_DATE":"2023-01-19","REV_AT_EPOCH":"130","APOAPSIS":"313.347","RA_OF_ASC_NODE":"45.7686","SITE":"AFWTR","TLE_LINE2":"2 55276  70.0002  45.7686 0010869 195.6403 216.6954 15.88645233  1306","FILE":"3763218","DECAY_DATE":null,"SEMIMAJOR_AXIS":"6684.217","OBJECT_NAME":"STARLINK-5261","PERIAPSIS":"298.817","EPHEMERIS_TYPE":"0","REF_FRAME":"TEME","BSTAR":"-0.00326100000000","COUNTRY_CODE":"US"},{"TLE_LINE1":"1 55277U 23010J   23027.91667824 -.00917861  24944-3 -32631-2 0  9996","ELEMENT_SET_NO":"999","PERIOD":"90.644","CENTER_NAME":"EARTH","EPOCH":"2023-01-27T22:00:00.999936","ARG_OF_PERICENTER":"194.9416","ECCENTRICITY":"0.00108830","MEAN_MOTION_DDOT":"0.0002494400000","NORAD_CAT_ID":"55277","MEAN_ANOMALY":"216.8815","OBJECT_TYPE":"PAYLOAD","MEAN_ELEMENT_THEORY":"SGP4","TIME_SYSTEM":"UTC","OBJECT_ID":"2023-010J","CLASSIFICATION_TYPE":"U","GP_ID":"223839930","MEAN_MOTION_DOT":"-0.00917861","RCS_SIZE":null,"EPHEMERIS_TYPE":"0","BSTAR":"-0.00326310000000","REF_FRAME":"TEME","COUNTRY_CODE":"US","OBJECT_NAME":"STARLINK-5299","SEMIMAJOR_AXIS":"6684.268","PERIAPSIS":"298.859","SITE":"AFWTR","TLE_LINE2":"2 55277  70.0001  45.7698 0010883 194.9416 216.8815 15.88626981  1308","RA_OF_ASC_NODE":"45.7698","FILE":"3763218","DECAY_DATE":null,"INCLINATION":"70.0001","MEAN_MOTION":"15.88626981","LAUNCH_DATE":"2023-01-19","REV_AT_EPOCH":"130","APOAPSIS":"313.408"},{"REV_AT_EPOCH":"130","APOAPSIS":"313.523","LAUNCH_DATE":"2023-01-19","MEAN_MOTION":"15.88673134","INCLINATION":"70.0002","DECAY_DATE":null,"FILE":"3763218","TLE_LINE2":"2 55278  70.0002  45.7679 0011249 192.5807 220.4813 15.88673134  1305","SITE":"AFWTR","RA_OF_ASC_NODE":"45.7679","PERIAPSIS":"298.485","OBJECT_NAME":"STARLINK-5289","SEMIMAJOR_AXIS":"6684.139","COUNTRY_CODE":"US","BSTAR":"-0.00325290000000","REF_FRAME":"TEME","EPHEMERIS_TYPE":"0","RCS_SIZE":null,"MEAN_MOTION_DOT":"-0.00917425","GP_ID":"223840178","CLASSIFICATION_TYPE":"U","OBJECT_ID":"2023-010K","MEAN_ELEMENT_THEORY":"SGP4","TIME_SYSTEM":"UTC","MEAN_ANOMALY":"220.4813","OBJECT_TYPE":"PAYLOAD","NORAD_CAT_ID":"55278","ECCENTRICITY":"0.00112490","ARG_OF_PERICENTER":"192.5807","MEAN_MOTION_DDOT":"0.0002493300000","EPOCH":"2023-01-27T22:00:00.999936","CENTER_NAME":"EARTH","TLE_LINE1":"1 55278U 23010K   23027.91667824 -.00917425  24933-3 -32529-2 0  9997","PERIOD":"90.642","ELEMENT_SET_NO":"999"},{"SEMIMAJOR_AXIS":"6684.243","OBJECT_NAME":"STARLINK-5323","PERIAPSIS":"298.870","COUNTRY_CODE":"US","EPHEMERIS_TYPE":"0","REF_FRAME":"TEME","BSTAR":"-0.00326230000000","REV_AT_EPOCH":"130","APOAPSIS":"313.346","INCLINATION":"70.0002","MEAN_MOTION":"15.88635995","LAUNCH_DATE":"2023-01-19","FILE":"3763218","DECAY_DATE":null,"RA_OF_ASC_NODE":"45.7693","SITE":"AFWTR","TLE_LINE2":"2 55279  70.0002  45.7693 0010828 195.6337 216.4523 15.88635995  1302","TIME_SYSTEM":"UTC","MEAN_ELEMENT_THEORY":"SGP4","OBJECT_ID":"2023-010L","NORAD_CAT_ID":"55279","OBJECT_TYPE":"PAYLOAD","MEAN_ANOMALY":"216.4523","EPOCH":"2023-01-27T22:00:00.999936","MEAN_MOTION_DDOT":"0.0002495300000","ARG_OF_PERICENTER":"195.6337","ECCENTRICITY":"0.00108280","ELEMENT_SET_NO":"999","PERIOD":"90.644","TLE_LINE1":"1 55279U 23010L   23027.91667824 -.00917999  24953-3 -32623-2 0  9991","CENTER_NAME":"EARTH","MEAN_MOTION_DOT":"-0.00917999","RCS_SIZE":null,"GP_ID":"223840925","CLASSIFICATION_TYPE":"U"},{"COUNTRY_CODE":"US","EPHEMERIS_TYPE":"0","REF_FRAME":"TEME","BSTAR":"-0.00325350000000","SEMIMAJOR_AXIS":"6684.117","OBJECT_NAME":"STARLINK-5331","PERIAPSIS":"298.587","FILE":"3763218","DECAY_DATE":null,"RA_OF_ASC_NODE":"45.7673","SITE":"AFWTR","TLE_LINE2":"2 55280  70.0001  45.7673 0011064 194.5312 218.8392 15.88680967  1304","REV_AT_EPOCH":"130","APOAPSIS":"313.377","INCLINATION":"70.0001","MEAN_MOTION":"15.88680967","LAUNCH_DATE":"2023-01-19","EPOCH":"2023-01-27T22:00:00.999936","MEAN_MOTION_DDOT":"0.0002495300000","ARG_OF_PERICENTER":"194.5312","ECCENTRICITY":"0.00110640","PERIOD":"90.641","ELEMENT_SET_NO":"999","TLE_LINE1":"1 55280U 23010M   23027.91667824 -.00917784  24953-3 -32535-2 0  9997","CENTER_NAME":"EARTH","TIME_SYSTEM":"UTC","MEAN_ELEMENT_THEORY":"SGP4","OBJECT_ID":"2023-010M","NORAD_CAT_ID":"55280","OBJECT_TYPE":"PAYLOAD","MEAN_ANOMALY":"218.8392","CLASSIFICATION_TYPE":"U","MEAN_MOTION_DOT":"-0.00917784","RCS_SIZE":null,"GP_ID":"223841670"},{"MEAN_MOTION_DOT":"-0.00917840","RCS_SIZE":null,"GP_ID":"223840427","CLASSIFICATION_TYPE":"U","MEAN_ELEMENT_THEORY":"SGP4","TIME_SYSTEM":"UTC","OBJECT_ID":"2023-010N","NORAD_CAT_ID":"55281","MEAN_ANOMALY":"216.7481","OBJECT_TYPE":"PAYLOAD","EPOCH":"2023-01-27T22:00:00.999936","ARG_OF_PERICENTER":"195.8650","ECCENTRICITY":"0.00107560","MEAN_MOTION_DDOT":"0.0002495000000","TLE_LINE1":"1 55281U 23010N   23027.91667824 -.00917840  24950-3 -32591-2 0  9990","PERIOD":"90.643","ELEMENT_SET_NO":"999","CENTER_NAME":"EARTH","REV_AT_EPOCH":"130","APOAPSIS":"313.248","INCLINATION":"70.0001","MEAN_MOTION":"15.88653575","LAUNCH_DATE":"2023-01-19","FILE":"3763218","DECAY_DATE":null,"TLE_LINE2":"2 55281  70.0001  45.7687 0010756 195.8650 216.7481 15.88653575  1307","SITE":"AFWTR","RA_OF_ASC_NODE":"45.7687","OBJECT_NAME":"STARLINK-5298","SEMIMAJOR_AXIS":"6684.194","PERIAPSIS":"298.869","COUNTRY_CODE":"US","EPHEMERIS_TYPE":"0","BSTAR":"-0.00325910000000","REF_FRAME":"TEME"},{"DECAY_DATE":null,"FILE":"3763218","SITE":"AFWTR","TLE_LINE2":"2 55282  70.0000  45.7666 0011224 193.2416 220.8817 15.88707529  1305","RA_OF_ASC_NODE":"45.7666","APOAPSIS":"313.410","REV_AT_EPOCH":"130","LAUNCH_DATE":"2023-01-19","INCLINATION":"70.0000","MEAN_MOTION":"15.88707529","COUNTRY_CODE":"US","BSTAR":"-0.00324340000000","REF_FRAME":"TEME","EPHEMERIS_TYPE":"0","PERIAPSIS":"298.405","OBJECT_NAME":"STARLINK-5330","SEMIMAJOR_AXIS":"6684.043","CLASSIFICATION_TYPE":"U","RCS_SIZE":null,"MEAN_MOTION_DOT":"-0.00916300","GP_ID":"223840676","ARG_OF_PERICENTER":"193.2416","ECCENTRICITY":"0.00112240","MEAN_MOTION_DDOT":"0.0002488500000","EPOCH":"2023-01-27T22:00:00.999936","CENTER_NAME":"EARTH","TLE_LINE1":"1 55282U 23010P   23027.91667824 -.00916300  24885-3 -32434-2 0  9994","ELEMENT_SET_NO":"999","PERIOD":"90.640","OBJECT_ID":"2023-010P","MEAN_ELEMENT_THEORY":"SGP4","TIME_SYSTEM":"UTC","MEAN_ANOMALY":"220.8817","OBJECT_TYPE":"PAYLOAD","NORAD_CAT_ID":"55282"},{"CLASSIFICATION_TYPE":"U","GP_ID":"223841422","MEAN_MOTION_DOT":"-0.00917444","RCS_SIZE":null,"TLE_LINE1":"1 55283U 23010Q   23027.91667824 -.00917444  24932-3 -32554-2 0  9991","PERIOD":"90.642","ELEMENT_SET_NO":"999","CENTER_NAME":"EARTH","EPOCH":"2023-01-27T22:00:00.999936","ECCENTRICITY":"0.00110230","ARG_OF_PERICENTER":"193.2534","MEAN_MOTION_DDOT":"0.0002493200000","NORAD_CAT_ID":"55283","MEAN_ANOMALY":"219.6109","OBJECT_TYPE":"PAYLOAD","MEAN_ELEMENT_THEORY":"SGP4","TIME_SYSTEM":"UTC","OBJECT_ID":"2023-010Q","SITE":"AFWTR","TLE_LINE2":"2 55283  70.0001  45.7683 0011023 193.2534 219.6109 15.88662559  1307","RA_OF_ASC_NODE":"45.7683","FILE":"3763218","DECAY_DATE":null,"INCLINATION":"70.0001","MEAN_MOTION":"15.88662559","LAUNCH_DATE":"2023-01-19","APOAPSIS":"313.402","REV_AT_EPOCH":"130","EPHEMERIS_TYPE":"0","BSTAR":"-0.00325540000000","REF_FRAME":"TEME","COUNTRY_CODE":"US","OBJECT_NAME":"STARLINK-5317","SEMIMAJOR_AXIS":"6684.169","PERIAPSIS":"298.666"},{"RA_OF_ASC_NODE":"45.7656","TLE_LINE2":"2 55284  70.0002  45.7656 0010950 194.3329 220.3692 15.88724431  1305","SITE":"AFWTR","FILE":"3763218","DECAY_DATE":null,"MEAN_MOTION":"15.88724431","INCLINATION":"70.0002","LAUNCH_DATE":"2023-01-19","REV_AT_EPOCH":"130","APOAPSIS":"313.179","EPHEMERIS_TYPE":"0","REF_FRAME":"TEME","BSTAR":"-0.00324460000000","COUNTRY_CODE":"US","SEMIMAJOR_AXIS":"6683.995","OBJECT_NAME":"STARLINK-5337","PERIAPSIS":"298.541","CLASSIFICATION_TYPE":"U","GP_ID":"223841174","MEAN_MOTION_DOT":"-0.00917162","RCS_SIZE":null,"PERIOD":"90.639","ELEMENT_SET_NO":"999","TLE_LINE1":"1 55284U 23010R   23027.91667824 -.00917162  24932-3 -32446-2 0  9999","CENTER_NAME":"EARTH","EPOCH":"2023-01-27T22:00:00.999936","MEAN_MOTION_DDOT":"0.0002493200000","ARG_OF_PERICENTER":"194.3329","ECCENTRICITY":"0.00109500","NORAD_CAT_ID":"55284","OBJECT_TYPE":"PAYLOAD","MEAN_ANOMALY":"220.3692","MEAN_ELEMENT_THEORY":"SGP4","TIME_SYSTEM":"UTC","OBJECT_ID":"2023-010R"}];
